{
    "links": {
        "self": "http://www.neowsapp.com/rest/v1/neo/3829459?api_key=iIulBulltgU6a56xZRHN4H3l9WmuAYTsLGpBGhQ2"
    },
    "id": "3829459",
    "neo_reference_id": "3829459",
    "name": "(2018 RE7)",
    "designation": "2018 RE7",
    "nasa_jpl_url": "http://ssd.jpl.nasa.gov/sbdb.cgi?sstr=3829459",
    "absolute_magnitude_h": 24.1,
    "estimated_diameter": {
        "kilometers": {
            "estimated_diameter_min": 0.040230458,
            "estimated_diameter_max": 0.0899580388
        },
        "meters": {
            "estimated_diameter_min": 40.2304579834,
            "estimated_diameter_max": 89.9580388169
        },
        "miles": {
            "estimated_diameter_min": 0.0249980399,
            "estimated_diameter_max": 0.0558973165
        },
        "feet": {
            "estimated_diameter_min": 131.9896957704,
            "estimated_diameter_max": 295.1379320721
        }
    },
    "is_potentially_hazardous_asteroid": false,
    "close_approach_data": [
        {
            "close_approach_date": "1962-04-04",
            "close_approach_date_full": "1962-Apr-04 17:52",
            "epoch_date_close_approach": -244361280000,
            "relative_velocity": {
                "kilometers_per_second": "15.0415839401",
                "kilometers_per_hour": "54149.702184378",
                "miles_per_hour": "33646.5191156209"
            },
            "miss_distance": {
                "astronomical": "0.1793995518",
                "lunar": "69.7864256502",
                "kilometers": "26837790.828234666",
                "miles": "16676229.9336077508"
            },
            "orbiting_body": "Earth"
        },
        {
            "close_approach_date": "2007-10-05",
            "close_approach_date_full": "2007-Oct-05 04:20",
            "epoch_date_close_approach": 1191558000000,
            "relative_velocity": {
                "kilometers_per_second": "26.0590843761",
                "kilometers_per_hour": "93812.7037539154",
                "miles_per_hour": "58291.5658408704"
            },
            "miss_distance": {
                "astronomical": "0.4904452473",
                "lunar": "190.7832011997",
                "kilometers": "73369564.347703251",
                "miles": "45589733.2616408238"
            },
            "orbiting_body": "Earth"
        },
        {
            "close_approach_date": "2015-04-07",
            "close_approach_date_full": "2015-Apr-07 02:17",
            "epoch_date_close_approach": 1428373020000,
            "relative_velocity": {
                "kilometers_per_second": "13.8527620903",
                "kilometers_per_hour": "49869.9435249997",
                "miles_per_hour": "30987.2435197422"
            },
            "miss_distance": {
                "astronomical": "0.1597247531",
                "lunar": "62.1329289559",
                "kilometers": "23894482.850035897",
                "miles": "14847343.1625614986"
            },
            "orbiting_body": "Earth"
        },
        {
            "close_approach_date": "2018-09-05",
            "close_approach_date_full": "2018-Sep-05 20:14",
            "epoch_date_close_approach": 1536178440000,
            "relative_velocity": {
                "kilometers_per_second": "11.8975878588",
                "kilometers_per_hour": "42831.3162916944",
                "miles_per_hour": "26613.7142813587"
            },
            "miss_distance": {
                "astronomical": "0.0334228062",
                "lunar": "13.0014716118",
                "kilometers": "4999980.616942794",
                "miles": "3106843.8891027972"
            },
            "orbiting_body": "Earth"
        },
        {
            "close_approach_date": "2029-04-10",
            "close_approach_date_full": "2029-Apr-10 00:39",
            "epoch_date_close_approach": 1870475940000,
            "relative_velocity": {
                "kilometers_per_second": "11.2932395835",
                "kilometers_per_hour": "40655.6625007523",
                "miles_per_hour": "25261.8476244258"
            },
            "miss_distance": {
                "astronomical": "0.1521611997",
                "lunar": "59.1907066833",
                "kilometers": "22762991.371764639",
                "miles": "14144266.9600404582"
            },
            "orbiting_body": "Earth"
        }
    ],
    "orbital_data": {
        "orbit_id": "4",
        "orbit_determination_date": "2018-10-03 06:27:45",
        "first_observation_date": "2018-09-13",
        "last_observation_date": "2018-10-02",
        "data_arc_in_days": 19,
        "observations_used": 24,
        "orbit_uncertainty": "7",
        "minimum_orbit_intersection": ".0110925",
        "jupiter_tisserand_invariant": "4.788",
        "epoch_osculation": "2459000.5",
        "eccentricity": ".385016196884862",
        "semi_major_axis": "1.343195858905187",
        "inclination": "12.82221196130952",
        "ascending_node_longitude": "163.0491587599181",
        "orbital_period": "568.6007695881692",
        "perihelion_distance": ".8260436976380163",
        "perihelion_argument": "114.2131580258086",
        "aphelion_distance": "1.860348020172358",
        "perihelion_time": "2458886.053714413519",
        "mean_anomaly": "72.45973803548351",
        "mean_motion": ".6331331564337201",
        "equinox": "J2000",
        "orbit_class": {
            "orbit_class_type": "APO",
            "orbit_class_description": "Near-Earth asteroid orbits which cross the Earth’s orbit similar to that of 1862 Apollo",
            "orbit_class_range": "a (semi-major axis) > 1.0 AU; q (perihelion) < 1.017 AU"
        }
    },
    "is_sentry_object": false
}